NORAD_CAT_ID,OBJECT_NAME,OBJECT_TYPE,EPOCH,MEAN_MOTION,ECCENTRICITY,INCLINATION,RA_OF_ASC_NODE,ARG_OF_PERICENTER,MEAN_ANOMALY,BSTAR,MEAN_MOTION_DOT,MEAN_MOTION_DDOT,TLE_LINE0,TLE_LINE1,TLE_LINE2,SEMIMAJOR_AXIS,PERIOD,APOGEE,PERIGEE,DECAYED
51894.0,STARLINK-3595,PAYLOAD,2022-04-06 20:00:01,15.73181204,0.0001208,53.2152,334.7437,107.3811,239.819,0.00015016,0.00020488,0.0,0 STARLINK-3595,1 51894U 22022AU  22096.83334491  .00020488  00000-0  15016-3 0  9997,2 51894  53.2152 334.7437 0001208 107.3811 239.8190 15.73181204  6662,6727.949000000001,91.534,350.626,349.001,0.0
51894.0,STARLINK-3595,PAYLOAD,2022-04-06 22:00:00,15.73195256,0.0001200999999999,53.215,334.332,103.0288,356.3951,-2.7912e-05,-4.534e-05,0.0,0 STARLINK-3595,1 51894U 22022AU  22096.91667824 -.00004534  00000-0 -27912-4 0  9990,2 51894  53.2150 334.3320 0001201 103.0288 356.3951 15.73195256  3750,6727.909000000002,91.533,350.582,348.966,0.0
51894.0,STARLINK-3595,PAYLOAD,2022-04-07 14:00:01,15.73188027,0.0001119,53.2148,331.0307,117.5056,159.7994,0.00019818,0.00027269,0.0,0 STARLINK-3595,1 51894U 22022AU  22097.58334491  .00027269  00000-0  19818-3 0  9998,2 51894  53.2148 331.0307 0001119 117.5056 159.7994 15.73188027  3702,6727.929,91.534,350.547,349.041,0.0
51894.0,STARLINK-3595,PAYLOAD,2022-04-07 22:00:00,15.73233292,0.0001175,53.2151,329.3832,103.9076,262.3122,-0.00020732,-0.00029654,0.0,0 STARLINK-3595,1 51894U 22022AU  22097.91667824 -.00029654  00000-0 -20732-3 0  9993,2 51894  53.2151 329.3832 0001175 103.9076 262.3122 15.73233292  6838,6727.8,91.531,350.456,348.875,0.0
51894.0,STARLINK-3595,PAYLOAD,2022-04-08 14:00:03,15.73256382,0.0001371,53.215,326.082,111.4575,72.7933,-0.0002566,-0.00036563,0.0,0 STARLINK-3595,1 51894U 22022AU  22098.58336806 -.00036563  00000-0 -25660-3 0  9992,2 51894  53.2150 326.0820 0001371 111.4575  72.7933 15.73256382  6944,6727.734,91.53,350.522,348.677,0.0
51894.0,STARLINK-3595,PAYLOAD,2022-04-08 22:00:00,15.73240445,0.0001196,53.2147,324.4346,103.2311,169.8828,-0.00079893,-0.00111462,0.0,0 STARLINK-3595,1 51894U 22022AU  22098.91667824 -.00111462  00000-0 -79893-3 0  9995,2 51894  53.2147 324.4346 0001196 103.2311 169.8828 15.73240445  3678,6727.78,91.531,350.45,348.84,0.0
51894.0,STARLINK-3595,PAYLOAD,2022-04-09 06:00:00,15.73165284,9.37e-05,53.2142,322.7846,106.3861,255.6308,-0.00014881,-0.00021419,0.0,0 STARLINK-3595,1 51894U 22022AU  22099.25001157 -.00021419  00000-0 -14881-3 0  9992,2 51894  53.2142 322.7846 0000937 106.3861 255.6308 15.73165284  7044,6727.994000000002,91.535,350.49,349.22900000000016,0.0
51894.0,STARLINK-3595,PAYLOAD,2022-04-09 14:00:01,15.73112081,0.0001152,53.2146,321.1337,117.3043,333.5832,0.00036835,0.00051196,0.0,0 STARLINK-3595,1 51894U 22022AU  22099.58334491  .00051196  00000-0  36835-3 0  9994,2 51894  53.2146 321.1337 0001152 117.3043 333.5832 15.73112081  3704,6728.146,91.538,350.786,349.236,0.0
51894.0,STARLINK-3595,PAYLOAD,2022-04-09 22:00:00,15.73162682,0.000104,53.2147,319.4863,102.7874,76.9787,0.00046047,0.00064397,0.0,0 STARLINK-3595,1 51894U 22022AU  22099.91667824  .00064397  00000-0  46047-3 0  9993,2 51894  53.2147 319.4863 0001040 102.7874  76.9787 15.73162682  7157,6728.002,91.535,350.566,349.167,0.0
51894.0,STARLINK-3595,PAYLOAD,2022-04-10 14:00:01,15.73291491,0.0001031,53.2147,316.1855,114.342,243.3201,-0.00034428,-0.00048845,0.0,0 STARLINK-3595,1 51894U 22022AU  22100.58334491 -.00048845  00000-0 -34428-3 0  9992,2 51894  53.2147 316.1855 0001031 114.3420 243.3201 15.73291491  3707,6727.634,91.528,350.1930000000001,348.806,0.0
51894.0,STARLINK-3595,PAYLOAD,2022-04-10 20:00:01,15.73280966,0.0001048,53.2142,314.9497,102.0289,232.4032,-0.00068595,-0.00096125,0.0,0 STARLINK-3595,1 51894U 22022AU  22100.83334491 -.00096125  00000-0 -68595-3 0  9996,2 51894  53.2142 314.9497 0001048 102.0289 232.4032 15.73280966  7299,6727.6640000000025,91.528,350.2340000000001,348.824,0.0
51894.0,STARLINK-3595,PAYLOAD,2022-04-10 22:00:00,15.73256233,0.0001067,53.2142,314.5378,98.3043,348.3832,-0.0005117,-0.00071992,0.0,0 STARLINK-3595,1 51894U 22022AU  22100.91667824 -.00071992  00000-0 -51170-3 0  9990,2 51894  53.2142 314.5378 0001067  98.3043 348.3832 15.73256233  3706,6727.735,91.53,350.3180000000001,348.88199999999995,0.0
51894.0,STARLINK-3595,PAYLOAD,2022-04-11 04:00:01,15.7340878,0.0001041,53.2152,313.2912,105.438,318.0057,-0.0052583,-0.00687271,0.0,0 STARLINK-3595,1 51894U 22022AU  22101.16668981 -.00687271  00000-0 -52583-2 0  9994,2 51894  53.2152 313.2912 0001041 105.4380 318.0057 15.73408780  7346,6727.3,91.521,349.865,348.465,0.0
51894.0,STARLINK-3595,PAYLOAD,2022-04-11 12:00:00,15.73148723,9.82e-05,53.2136,311.6488,115.4421,36.8831,0.00049473,0.00069233,0.0,0 STARLINK-3595,1 51894U 22022AU  22101.50001157  .00069233  00000-0  49473-3 0  9993,2 51894  53.2136 311.6488 0000982 115.4421  36.8831 15.73148723  7396,6728.041,91.536,350.56699999999995,349.246,0.0
51894.0,STARLINK-3595,PAYLOAD,2022-04-11 14:00:01,15.73155068,0.0001,53.2139,311.2366,115.1909,149.3541,0.00058786,0.00082536,0.0,0 STARLINK-3595,1 51894U 22022AU  22101.58334491  .00082536  00000-0  58786-3 0  9999,2 51894  53.2139 311.2366 0001000 115.1909 149.3541 15.73155068  3709,6728.023,91.536,350.561,349.215,0.0
51894.0,STARLINK-3595,PAYLOAD,2022-04-11 20:00:01,15.73209848,9.64e-05,53.2138,310.0014,101.2833,139.9184,-0.00026977,-0.00038322,0.0,0 STARLINK-3595,1 51894U 22022AU  22101.83334491 -.00038322  00000-0 -26977-3 0  9990,2 51894  53.2138 310.0014 0000964 101.2833 139.9184 15.73209848  7455,6727.8669999999975,91.533,350.381,349.084,0.0
51894.0,STARLINK-3595,PAYLOAD,2022-04-11 22:00:00,15.73209703,9.87e-05,53.214,309.5894,97.0005,256.4321,-0.00032257,-0.00045662,0.0,0 STARLINK-3595,1 51894U 22022AU  22101.91667824 -.00045662  00000-0 -32257-3 0  9991,2 51894  53.2140 309.5894 0000987  97.0005 256.4321 15.73209703  3695,6727.868,91.533,350.397,349.0680000000001,0.0
51894.0,STARLINK-3595,PAYLOAD,2022-04-12 14:00:01,15.73145554,0.0001312,53.2138,306.2884,104.6873,66.5601,0.00041162,0.00057409,0.0,0 STARLINK-3595,1 51894U 22022AU  22102.58334491  .00057409  00000-0  41162-3 0  9991,2 51894  53.2138 306.2884 0001312 104.6873  66.5601 15.73145554  3702,6728.05,91.536,350.798,349.033,0.0
51894.0,STARLINK-3595,PAYLOAD,2022-04-12 20:00:01,15.73177413,0.0001233,53.2132,305.053,93.1815,54.7313,0.00024973,0.00034538,0.0,0 STARLINK-3595,1 51894U 22022AU  22102.83334491  .00034538  00000-0  24973-3 0  9998,2 51894  53.2132 305.0530 0001233  93.1815  54.7313 15.73177413  7602,6727.96,91.534,350.654,348.995,0.0
51894.0,STARLINK-3595,PAYLOAD,2022-04-12 22:00:00,15.73170392,0.0001248,53.2133,304.6411,90.5482,169.5938,0.00048922,0.00068513,0.0,0 STARLINK-3595,1 51894U 22022AU  22102.91667824  .00068513  00000-0  48922-3 0  9996,2 51894  53.2133 304.6411 0001248  90.5482 169.5938 15.73170392  3695,6727.98,91.535,350.684,349.005,0.0
51894.0,STARLINK-3595,PAYLOAD,2022-04-13 14:00:03,15.73414868,0.0001161,53.2147,301.3305,101.7542,336.3999,-0.0036183,-0.00484673,0.0,0 STARLINK-3595,1 51894U 22022AU  22103.58336806 -.00484673  00000-0 -36183-2 0  9999,2 51894  53.2147 301.3305 0001161 101.7542 336.3999 15.73414868  3704,6727.283,91.521,349.92900000000014,348.367,0.0
51894.0,STARLINK-3595,PAYLOAD,2022-04-13 22:00:00,15.73240253,9.75e-05,53.2131,299.6919,86.3291,80.7182,-2.0942e-05,-3.562e-05,0.0,0 STARLINK-3595,1 51894U 22022AU  22103.91667824 -.00003562  00000-0 -20942-4 0  9995,2 51894  53.2131 299.6919 0000975  86.3291  80.7182 15.73240253  7789,6727.78,91.531,350.301,348.98900000000015,0.0
51894.0,STARLINK-3595,PAYLOAD,2022-04-14 14:00:01,15.73232206,0.0001338,53.2129,296.3905,96.1275,248.8328,-0.00069501,-0.00097175,0.0,0 STARLINK-3595,1 51894U 22022AU  22104.58334491 -.00097175  00000-0 -69501-3 0  9996,2 51894  53.2129 296.3905 0001338  96.1275 248.8328 15.73232206  7889,6727.803000000001,91.531,350.569,348.76800000000014,0.0
51894.0,STARLINK-3595,PAYLOAD,2022-04-14 22:00:00,15.73139477,0.0001286999999999,53.2124,294.7428,84.9051,349.0145,0.00036538,0.00050837,0.0,0 STARLINK-3595,1 51894U 22022AU  22104.91667824  .00050837  00000-0  36538-3 0  9998,2 51894  53.2124 294.7428 0001287  84.9051 349.0145 15.73139477  7939,6728.068,91.537,350.7990000000001,349.06699999999995,0.0
51894.0,STARLINK-3595,PAYLOAD,2022-04-15 12:56:04,15.73218449,9.68e-05,53.2126,291.6613,86.0695,274.0435,0.00034593,0.00048246,0.0,0 STARLINK-3595,1 51894U 22022AU  22105.53893948  .00048246  00000-0  34593-3 0  9995,2 51894  53.2126 291.6613 0000968  86.0695 274.0435 15.73218449  8033,6727.843000000003,91.532,350.3590000000001,349.056,0.0
51894.0,STARLINK-3595,PAYLOAD,2022-04-15 14:00:01,15.73262608,0.0001064,53.2122,291.4415,97.3908,154.358,0.00036401,0.00050914,0.0,0 STARLINK-3595,1 51894U 22022AU  22105.58334491  .00050914  00000-0  36401-3 0  9998,2 51894  53.2122 291.4415 0001064  97.3908 154.3580 15.73262608  8045,6727.717,91.53,350.298,348.866,0.0
51894.0,STARLINK-3595,PAYLOAD,2022-04-15 22:00:00,15.73266877,0.0001048,53.2123,289.7935,80.1999,260.5626,-0.00031059,-0.00044105,0.0,0 STARLINK-3595,1 51894U 22022AU  22105.91667824 -.00044105  00000-0 -31059-3 0  9995,2 51894  53.2123 289.7935 0001048  80.1999 260.5626 15.73266877  8093,6727.705,91.529,350.275,348.86400000000015,0.0
51894.0,STARLINK-3595,PAYLOAD,2022-04-16 14:00:01,15.73116158,0.0001157,53.2124,286.492,88.6726,69.9885,-0.00013039,-0.00018812,0.0,0 STARLINK-3595,1 51894U 22022AU  22106.58334491 -.00018812  00000-0 -13039-3 0  9994,2 51894  53.2124 286.4920 0001157  88.6726  69.9885 15.73116158  8199,6728.134,91.538,350.778,349.221,0.0
51894.0,STARLINK-3595,PAYLOAD,2022-04-16 22:00:01,15.73086911,0.0001098,53.212,284.8443,72.3835,175.172,0.00073154,0.00102811,0.0,0 STARLINK-3595,1 51894U 22022AU  22106.91668981  .00102811  00000-0  73154-3 0  9990,2 51894  53.2120 284.8443 0001098  72.3835 175.1720 15.73086911  3716,6728.218000000003,91.54,350.821,349.344,0.0
